{
  "norad_id": 44115,
  "name": "O3B FM18",
  "history": [
    {
      "epoch": "2026-03-28T17:01:46.294176Z",
      "apogee_km": 8069.835565998867,
      "perigee_km": 8061.954035606442,
      "latitude_deg": -0.0008604781797006907,
      "longitude_deg": -81.5690065801799,
      "height_km": 8060.460937986752,
      "semi_major_axis_km": 14444.031800802655,
      "eccentricity": 0.00027283,
      "inclination_deg": 0.0531,
      "raan_deg": 1.0228,
      "arg_perigee_deg": 5.9136,
      "mean_anomaly_deg": 353.0627,
      "mean_motion_rev_day": 5.00115262
    },
    {
      "epoch": "2026-03-29T02:37:27.407136Z",
      "apogee_km": 8069.836365226322,
      "perigee_km": 8061.952812785045,
      "latitude_deg": -0.0007233061964067902,
      "longitude_deg": 134.115617846274,
      "height_km": 8060.462720363678,
      "semi_major_axis_km": 14444.031589005685,
      "eccentricity": 0.0002729,
      "inclination_deg": 0.0531,
      "raan_deg": 0.9767,
      "arg_perigee_deg": 6.3261,
      "mean_anomaly_deg": 352.6965,
      "mean_motion_rev_day": 5.00115273
    },
    {
      "epoch": "2026-03-29T02:37:27.412320Z",
      "apogee_km": 8069.836403745371,
      "perigee_km": 8061.952851283074,
      "latitude_deg": -0.0007804876758492099,
      "longitude_deg": 134.11566671494953,
      "height_km": 8060.46324462192,
      "semi_major_axis_km": 14444.031627514223,
      "eccentricity": 0.0002729,
      "inclination_deg": 0.0531,
      "raan_deg": 1.0377,
      "arg_perigee_deg": 6.3197,
      "mean_anomaly_deg": 352.642,
      "mean_motion_rev_day": 5.00115271
    },
    {
      "epoch": "2026-03-30T07:24:30.767616Z",
      "apogee_km": 8069.837905902591,
      "perigee_km": 8061.950309395329,
      "latitude_deg": -0.0003640700465296584,
      "longitude_deg": 61.169515743953575,
      "height_km": 8060.469116694169,
      "semi_major_axis_km": 14444.03110764896,
      "eccentricity": 0.00027304,
      "inclination_deg": 0.0532,
      "raan_deg": 1.0796,
      "arg_perigee_deg": 7.211,
      "mean_anomaly_deg": 351.7096,
      "mean_motion_rev_day": 5.00115298
    },
    {
      "epoch": "2026-03-31T12:11:34.203264Z",
      "apogee_km": 8069.839311811228,
      "perigee_km": 8061.949981725763,
      "latitude_deg": 0.0003053032172925588,
      "longitude_deg": -11.776981255355976,
      "height_km": 8060.483272698103,
      "semi_major_axis_km": 14444.031646768495,
      "eccentricity": 0.0002731,
      "inclination_deg": 0.0532,
      "raan_deg": 1.0398,
      "arg_perigee_deg": 8.6239,
      "mean_anomaly_deg": 350.3378,
      "mean_motion_rev_day": 5.0011527
    },
    {
      "epoch": "2026-04-01T12:10:47.010720Z",
      "apogee_km": 8069.838637727776,
      "perigee_km": 8061.949308010394,
      "latitude_deg": 0.0007885679615638687,
      "longitude_deg": -12.565403134920501,
      "height_km": 8060.497065446594,
      "semi_major_axis_km": 14444.030972869085,
      "eccentricity": 0.0002731,
      "inclination_deg": 0.0532,
      "raan_deg": 1.1114,
      "arg_perigee_deg": 9.7413,
      "mean_anomaly_deg": 349.1501,
      "mean_motion_rev_day": 5.00115305
    },
    {
      "epoch": "2026-04-02T07:22:09.279840Z",
      "apogee_km": 8069.839340669795,
      "perigee_km": 8061.948566559836,
      "latitude_deg": 0.0011725509519714462,
      "longitude_deg": 58.80373188271871,
      "height_km": 8060.506197485327,
      "semi_major_axis_km": 14444.030953614816,
      "eccentricity": 0.00027315,
      "inclination_deg": 0.0532,
      "raan_deg": 1.1227,
      "arg_perigee_deg": 10.4666,
      "mean_anomaly_deg": 348.4144,
      "mean_motion_rev_day": 5.00115306
    },
    {
      "epoch": "2026-04-02T16:57:50.378112Z",
      "apogee_km": 8069.838358446264,
      "perigee_km": 8061.948162476184,
      "latitude_deg": 0.0013311892210455356,
      "longitude_deg": -85.51154491090819,
      "height_km": 8060.51253238747,
      "semi_major_axis_km": 14444.030260461222,
      "eccentricity": 0.00027313,
      "inclination_deg": 0.0533,
      "raan_deg": 1.1323,
      "arg_perigee_deg": 10.9335,
      "mean_anomaly_deg": 347.9384,
      "mean_motion_rev_day": 5.00115342
    },
    {
      "epoch": "2026-04-03T07:21:22.082112Z",
      "apogee_km": 8069.8381851228,
      "perigee_km": 8061.9485668508305,
      "latitude_deg": 0.0015376597015190907,
      "longitude_deg": 58.015241388116515,
      "height_km": 8060.521748871126,
      "semi_major_axis_km": 14444.030375986815,
      "eccentricity": 0.00027311,
      "inclination_deg": 0.0533,
      "raan_deg": 1.1394,
      "arg_perigee_deg": 11.5204,
      "mean_anomaly_deg": 347.345,
      "mean_motion_rev_day": 5.00115336
    },
    {
      "epoch": "2026-04-03T21:44:53.762784Z",
      "apogee_km": 8069.837915489467,
      "perigee_km": 8061.948297364735,
      "latitude_deg": 0.0016908876980562446,
      "longitude_deg": -158.45774816453627,
      "height_km": 8060.530996695779,
      "semi_major_axis_km": 14444.0301064271,
      "eccentricity": 0.00027311,
      "inclination_deg": 0.0533,
      "raan_deg": 1.1444,
      "arg_perigee_deg": 12.1257,
      "mean_anomaly_deg": 346.7354,
      "mean_motion_rev_day": 5.0011535
    },
    {
      "epoch": "2026-04-05T12:07:38.284608Z",
      "apogee_km": 8069.8390806477755,
      "perigee_km": 8061.94744027467,
      "latitude_deg": 0.0018751172562160754,
      "longitude_deg": -15.719423265064142,
      "height_km": 8060.562439038175,
      "semi_major_axis_km": 14444.030260461222,
      "eccentricity": 0.00027318,
      "inclination_deg": 0.0533,
      "raan_deg": 1.1048,
      "arg_perigee_deg": 14.0547,
      "mean_anomaly_deg": 344.8476,
      "mean_motion_rev_day": 5.00115342
    },
    {
      "epoch": "2026-04-05T16:55:28.831584Z",
      "apogee_km": 8069.837616972981,
      "perigee_km": 8061.948287812985,
      "latitude_deg": 0.0018098126892499566,
      "longitude_deg": -87.87717743053426,
      "height_km": 8060.569147608126,
      "semi_major_axis_km": 14444.029952392983,
      "eccentricity": 0.0002731,
      "inclination_deg": 0.0533,
      "raan_deg": 1.1669,
      "arg_perigee_deg": 14.3141,
      "mean_anomaly_deg": 344.5262,
      "mean_motion_rev_day": 5.00115358
    },
    {
      "epoch": "2026-04-05T21:43:19.410528Z",
      "apogee_km": 8069.839456190105,
      "perigee_km": 8061.946949206745,
      "latitude_deg": 0.0017918426284138245,
      "longitude_deg": -160.03487190229214,
      "height_km": 8060.574073999876,
      "semi_major_axis_km": 14444.030202698425,
      "eccentricity": 0.00027321,
      "inclination_deg": 0.0533,
      "raan_deg": 1.1732,
      "arg_perigee_deg": 14.6398,
      "mean_anomaly_deg": 344.1945,
      "mean_motion_rev_day": 5.00115345
    },
    {
      "epoch": "2026-04-07T12:06:03.913344Z",
      "apogee_km": 8069.839311774364,
      "perigee_km": 8061.948248878455,
      "latitude_deg": 0.0015754412131889902,
      "longitude_deg": -17.296471457711444,
      "height_km": 8060.599151749418,
      "semi_major_axis_km": 14444.03078032641,
      "eccentricity": 0.00027316,
      "inclination_deg": 0.0534,
      "raan_deg": 1.1504,
      "arg_perigee_deg": 15.8678,
      "mean_anomaly_deg": 342.9902,
      "mean_motion_rev_day": 5.00115315
    },
    {
      "epoch": "2026-04-07T16:53:54.475008Z",
      "apogee_km": 8069.83852217062,
      "perigee_km": 8061.949192516339,
      "latitude_deg": 0.0014709236697255225,
      "longitude_deg": -89.45409967531077,
      "height_km": 8060.604493875897,
      "semi_major_axis_km": 14444.03085734348,
      "eccentricity": 0.0002731,
      "inclination_deg": 0.0534,
      "raan_deg": 1.2183,
      "arg_perigee_deg": 16.0167,
      "mean_anomaly_deg": 342.7736,
      "mean_motion_rev_day": 5.00115311
    },
    {
      "epoch": "2026-04-08T07:17:26.119392Z",
      "apogee_km": 8069.838628067343,
      "perigee_km": 8061.947854346571,
      "latitude_deg": 0.0012970216862770677,
      "longitude_deg": 54.072984737209715,
      "height_km": 8060.616833388703,
      "semi_major_axis_km": 14444.030241206958,
      "eccentricity": 0.00027315,
      "inclination_deg": 0.0534,
      "raan_deg": 1.266,
      "arg_perigee_deg": 16.6215,
      "mean_anomaly_deg": 342.1215,
      "mean_motion_rev_day": 5.00115343
    },
    {
      "epoch": "2026-04-09T12:04:29.479872Z",
      "apogee_km": 8069.838136980116,
      "perigee_km": 8061.948807536169,
      "latitude_deg": 0.0010220416711353808,
      "longitude_deg": -18.873177727995547,
      "height_km": 8060.643908846336,
      "semi_major_axis_km": 14444.030472258142,
      "eccentricity": 0.0002731,
      "inclination_deg": 0.0534,
      "raan_deg": 1.2966,
      "arg_perigee_deg": 17.7854,
      "mean_anomaly_deg": 340.9277,
      "mean_motion_rev_day": 5.00115331
    },
    {
      "epoch": "2026-04-10T07:15:51.722208Z",
      "apogee_km": 8069.839773978433,
      "perigee_km": 8061.9475556231855,
      "latitude_deg": 0.000878743968873345,
      "longitude_deg": 52.49600546526899,
      "height_km": 8060.662634296213,
      "semi_major_axis_km": 14444.030664800808,
      "eccentricity": 0.0002732,
      "inclination_deg": 0.0534,
      "raan_deg": 1.3242,
      "arg_perigee_deg": 18.6237,
      "mean_anomaly_deg": 340.0623,
      "mean_motion_rev_day": 5.00115321
    }
  ]
}